ONEWEB-0492             
1 54114U 22138B   25018.43963730 -.00000035  00000+0 -12027-3 0  9996
2 54114  87.9149  47.3080 0001924 101.1386 258.9963 13.19726999109810
ONEWEB-0495             
1 54115U 22138C   25018.11426859  .00000055  00000+0  10612-3 0  9996
2 54115  87.9148  47.3843 0001556 118.7913 241.3376 13.19723593109752
ONEWEB-0497             
1 54116U 22138D   25017.82365057  .00000192  00000+0  44644-3 0  9990
2 54116  87.9144  47.4211 0001742  98.0506 262.0825 13.19725143108834
ONEWEB-0499             
1 54117U 22138E   25018.48860420  .00000134  00000+0  30343-3 0  9995
2 54117  87.9148  47.2990 0001386  88.7081 271.4211 13.19727072109803
ONEWEB-0500             
1 54118U 22138F   25017.80941161  .00000083  00000+0  17608-3 0  9995
2 54118  87.9146  47.4243 0001878  95.4372 264.6975 13.19727347108859
ONEWEB-0501             
1 54119U 22138G   25018.44595780  .00000003  00000+0 -26033-4 0  9995
2 54119  87.9144  47.2927 0001475 107.5745 252.5549 13.19727221109784
ONEWEB-0502             
1 54120U 22138H   25018.12846951 -.00000021  00000+0 -84400-4 0  9994
2 54120  87.9144  47.3424 0001489  99.3850 260.7451 13.19726945109762
ONEWEB-0503             
1 54121U 22138J   25017.58669248 -.00000257  00000+0 -67399-3 0  9994
2 54121  87.9142  47.4561 0001665  84.3652 275.7671 13.19724462109687
